THOR 6                  
1 36033U 09058B   17346.27448624 -.00000015  00000-0  00000+0 0  9991
2 36033   0.0440 150.3777 0001713 109.2006 279.5614  1.00270964 29795
